{
  "type": "FeatureCollection",
  "features": [
    {
      "type": "Feature",
      "properties": {
        "norad_id": 32376,
        "name": "COSMO-SKYMED 2",
        "group": "resource",
        "lat": -17.51365928275476,
        "lon": -24.28862021674055,
        "alt_km": 627.873650975278,
        "timestamp": "2025-12-02T17:49:11.682206+00:00",
        "meta_object_name": "COSMO-SKYMED 2",
        "meta_object_id": "2007-059A",
        "meta_epoch": "2025-12-02T12:04:14.251008",
        "meta_mean_motion": 14.82145028,
        "meta_eccentricity": 0.0001539,
        "meta_inclination": 97.8805,
        "meta_ra_of_asc_node": 157.9806,
        "meta_arg_of_pericenter": 91.003,
        "meta_mean_anomaly": 269.1359,
        "meta_ephemeris_type": 0,
        "meta_classification_type": "U",
        "meta_norad_cat_id": 32376,
        "meta_element_set_no": 999,
        "meta_rev_at_epoch": 97286,
        "meta_bstar": 0.00011111,
        "meta_mean_motion_dot": 8.32e-06,
        "meta_mean_motion_ddot": 0,
        "tle_line1": "1 32376U 07059A   25336.50294272  .00000832  00000+0  11111-3 0  9992",
        "tle_line2": "2 32376  97.8805 157.9806 0001539  91.0030 269.1359 14.82145028972869"
      },
      "geometry": {
        "type": "Point",
        "coordinates": [
          -24.28862021674055,
          -17.51365928275476
        ]
      }
    },
    {
      "type": "Feature",
      "properties": {
        "norad_id": 32382,
        "name": "RADARSAT-2",
        "group": "resource",
        "lat": -40.51580821093734,
        "lon": 154.06508112677386,
        "alt_km": 798.799603348335,
        "timestamp": "2025-12-02T17:49:11.682217+00:00",
        "meta_object_name": "RADARSAT-2",
        "meta_object_id": "2007-061A",
        "meta_epoch": "2025-12-02T13:25:52.191840",
        "meta_mean_motion": 14.29983253,
        "meta_eccentricity": 0.0001083,
        "meta_inclination": 98.58,
        "meta_ra_of_asc_node": 341.2977,
        "meta_arg_of_pericenter": 90.1665,
        "meta_mean_anomaly": 269.9642,
        "meta_ephemeris_type": 0,
        "meta_classification_type": "U",
        "meta_norad_cat_id": 32382,
        "meta_element_set_no": 999,
        "meta_rev_at_epoch": 93785,
        "meta_bstar": 6.721e-05,
        "meta_mean_motion_dot": 1.3e-06,
        "meta_mean_motion_ddot": 0,
        "tle_line1": "1 32382U 07061A   25336.55963185  .00000130  00000+0  67210-4 0  9996",
        "tle_line2": "2 32382  98.5800 341.2977 0001083  90.1665 269.9642 14.29983253937858"
      },
      "geometry": {
        "type": "Point",
        "coordinates": [
          154.06508112677386,
          -40.51580821093734
        ]
      }
    },
    {
      "type": "Feature",
      "properties": {
        "norad_id": 32783,
        "name": "CARTOSAT-2A",
        "group": "resource",
        "lat": 81.39133302672168,
        "lon": -88.326586680713,
        "alt_km": 620.6459101164291,
        "timestamp": "2025-12-02T17:49:11.682227+00:00",
        "meta_object_name": "CARTOSAT-2A",
        "meta_object_id": "2008-021A",
        "meta_epoch": "2025-12-02T12:31:39.177408",
        "meta_mean_motion": 14.78905455,
        "meta_eccentricity": 0.0012545,
        "meta_inclination": 97.7945,
        "meta_ra_of_asc_node": 26.6642,
        "meta_arg_of_pericenter": 36.547,
        "meta_mean_anomaly": 323.6596,
        "meta_ephemeris_type": 0,
        "meta_classification_type": "U",
        "meta_norad_cat_id": 32783,
        "meta_element_set_no": 999,
        "meta_rev_at_epoch": 94973,
        "meta_bstar": 0.00017866,
        "meta_mean_motion_dot": 1.268e-05,
        "meta_mean_motion_ddot": 0,
        "tle_line1": "1 32783U 08021A   25336.52198122  .00001268  00000+0  17866-3 0  9990",
        "tle_line2": "2 32783  97.7945  26.6642 0012545  36.5470 323.6596 14.78905455949738"
      },
      "geometry": {
        "type": "Point",
        "coordinates": [
          -88.326586680713,
          81.39133302672168
        ]
      }
    },
    {
      "type": "Feature",
      "properties": {
        "norad_id": 33320,
        "name": "HUANJING 1A (HJ-1A)",
        "group": "resource",
        "lat": 20.252921802851112,
        "lon": 148.3031913399754,
        "alt_km": 619.8853497448554,
        "timestamp": "2025-12-02T17:49:11.682238+00:00",
        "meta_object_name": "HUANJING 1A (HJ-1A)",
        "meta_object_id": "2008-041A",
        "meta_epoch": "2025-12-02T12:14:54.784320",
        "meta_mean_motion": 14.83341563,
        "meta_eccentricity": 0.002068,
        "meta_inclination": 97.6535,
        "meta_ra_of_asc_node": 325.2368,
        "meta_arg_of_pericenter": 66.0297,
        "meta_mean_anomaly": 294.308,
        "meta_ephemeris_type": 0,
        "meta_classification_type": "U",
        "meta_norad_cat_id": 33320,
        "meta_element_set_no": 999,
        "meta_rev_at_epoch": 92924,
        "meta_bstar": 0.00025021,
        "meta_mean_motion_dot": 2.006e-05,
        "meta_mean_motion_ddot": 0,
        "tle_line1": "1 33320U 08041A   25336.51035630  .00002006  00000+0  25021-3 0  9996",
        "tle_line2": "2 33320  97.6535 325.2368 0020680  66.0297 294.3080 14.83341563929243"
      },
      "geometry": {
        "type": "Point",
        "coordinates": [
          148.3031913399754,
          20.252921802851112
        ]
      }
    },
    {
      "type": "Feature",
      "properties": {
        "norad_id": 33321,
        "name": "HUANJING 1B (HJ-1B)",
        "group": "resource",
        "lat": 39.84405976089293,
        "lon": -37.248564737494206,
        "alt_km": 606.9832357502237,
        "timestamp": "2025-12-02T17:49:11.682248+00:00",
        "meta_object_name": "HUANJING 1B (HJ-1B)",
        "meta_object_id": "2008-041B",
        "meta_epoch": "2025-12-02T12:46:48.766368",
        "meta_mean_motion": 14.8277821,
        "meta_eccentricity": 0.0038146,
        "meta_inclination": 97.6395,
        "meta_ra_of_asc_node": 328.9816,
        "meta_arg_of_pericenter": 108.0171,
        "meta_mean_anomaly": 252.5206,
        "meta_ephemeris_type": 0,
        "meta_classification_type": "U",
        "meta_norad_cat_id": 33321,
        "meta_element_set_no": 999,
        "meta_rev_at_epoch": 92926,
        "meta_bstar": 0.00019968,
        "meta_mean_motion_dot": 1.583e-05,
        "meta_mean_motion_ddot": 0,
        "tle_line1": "1 33321U 08041B   25336.53250887  .00001583  00000+0  19968-3 0  9994",
        "tle_line2": "2 33321  97.6395 328.9816 0038146 108.0171 252.5206 14.82778210929260"
      },
      "geometry": {
        "type": "Point",
        "coordinates": [
          -37.248564737494206,
          39.84405976089293
        ]
      }
    },
    {
      "type": "Feature",
      "properties": {
        "norad_id": 33331,
        "name": "GEOEYE 1",
        "group": "resource",
        "lat": -46.06719076887007,
        "lon": 56.676727343109256,
        "alt_km": 682.4000233133402,
        "timestamp": "2025-12-02T17:49:11.682258+00:00",
        "meta_object_name": "GEOEYE 1",
        "meta_object_id": "2008-042A",
        "meta_epoch": "2025-12-02T11:28:29.048736",
        "meta_mean_motion": 14.64789372,
        "meta_eccentricity": 0.0003022,
        "meta_inclination": 98.1265,
        "meta_ra_of_asc_node": 47.8865,
        "meta_arg_of_pericenter": 321.0556,
        "meta_mean_anomaly": 39.0429,
        "meta_ephemeris_type": 0,
        "meta_classification_type": "U",
        "meta_norad_cat_id": 33331,
        "meta_element_set_no": 999,
        "meta_rev_at_epoch": 92135,
        "meta_bstar": 0.00017215,
        "meta_mean_motion_dot": 8.7e-06,
        "meta_mean_motion_ddot": 0,
        "tle_line1": "1 33331U 08042A   25336.47811399  .00000870  00000+0  17215-3 0  9991",
        "tle_line2": "2 33331  98.1265  47.8865 0003022 321.0556  39.0429 14.64789372921351"
      },
      "geometry": {
        "type": "Point",
        "coordinates": [
          56.676727343109256,
          -46.06719076887007
        ]
      }
    },
    {
      "type": "Feature",
      "properties": {
        "norad_id": 33396,
        "name": "THEOS",
        "group": "resource",
        "lat": -23.198042858002356,
        "lon": 38.839706963909634,
        "alt_km": 830.861621604774,
        "timestamp": "2025-12-02T17:49:11.682269+00:00",
        "meta_object_name": "THEOS",
        "meta_object_id": "2008-049A",
        "meta_epoch": "2025-12-02T11:09:58.592736",
        "meta_mean_motion": 14.20092824,
        "meta_eccentricity": 0.000109,
        "meta_inclination": 98.5882,
        "meta_ra_of_asc_node": 34.8573,
        "meta_arg_of_pericenter": 100.6922,
        "meta_mean_anomaly": 259.4378,
        "meta_ephemeris_type": 0,
        "meta_classification_type": "U",
        "meta_norad_cat_id": 33396,
        "meta_element_set_no": 999,
        "meta_rev_at_epoch": 89004,
        "meta_bstar": 6.8748e-05,
        "meta_mean_motion_dot": 1.04e-06,
        "meta_mean_motion_ddot": 0,
        "tle_line1": "1 33396U 08049A   25336.46526149  .00000104  00000+0  68748-4 0  9992",
        "tle_line2": "2 33396  98.5882  34.8573 0001090 100.6922 259.4378 14.20092824890047"
      },
      "geometry": {
        "type": "Point",
        "coordinates": [
          38.839706963909634,
          -23.198042858002356
        ]
      }
    }
  ]
}